[{"OBJECT_NAME":"STARLINK-1484","OBJECT_ID":"2020-038AC","EPOCH":"2026-03-09T22:57:36.167904","MEAN_MOTION":16.03954461,"ECCENTRICITY":0.00056204,"INCLINATION":52.9978,"RA_OF_ASC_NODE":55.1689,"ARG_OF_PERICENTER":71.428,"MEAN_ANOMALY":288.7361,"EPHEMERIS_TYPE":0,"CLASSIFICATION_TYPE":"U","NORAD_CAT_ID":45756,"ELEMENT_SET_NO":999,"REV_AT_EPOCH":31874,"BSTAR":0.00091616626,"MEAN_MOTION_DOT":0.00604568,"MEAN_MOTION_DDOT":0.00018359388},{"OBJECT_NAME":"STARLINK-6201","OBJECT_ID":"2023-064AQ","EPOCH":"2026-03-09T21:44:56.855904","MEAN_MOTION":16.07961417,"ECCENTRICITY":0.00041336,"INCLINATION":69.9928,"RA_OF_ASC_NODE":112.4664,"ARG_OF_PERICENTER":285.4272,"MEAN_ANOMALY":74.6486,"EPHEMERIS_TYPE":0,"CLASSIFICATION_TYPE":"U","NORAD_CAT_ID":56486,"ELEMENT_SET_NO":999,"REV_AT_EPOCH":15604,"BSTAR":0.00065439668,"MEAN_MOTION_DOT":0.00539186,"MEAN_MOTION_DDOT":0.0001484862}]
